[{"OBJECT_NAME":"HXMT (HUIYAN)","OBJECT_ID":"2017-034A","EPOCH":"2026-04-02T06:34:41.885760","MEAN_MOTION":15.17763041,"ECCENTRICITY":0.00312377,"INCLINATION":43.0136,"RA_OF_ASC_NODE":245.522,"ARG_OF_PERICENTER":21.6388,"MEAN_ANOMALY":338.5774,"EPHEMERIS_TYPE":0,"CLASSIFICATION_TYPE":"U","NORAD_CAT_ID":42758,"ELEMENT_SET_NO":999,"REV_AT_EPOCH":48612,"BSTAR":0.00030320923,"MEAN_MOTION_DOT":6.074e-5,"MEAN_MOTION_DDOT":0},{"OBJECT_NAME":"SAOCOM 1A","OBJECT_ID":"2018-076A","EPOCH":"2026-04-02T06:06:00.455616","MEAN_MOTION":14.82142761,"ECCENTRICITY":0.00013806,"INCLINATION":97.8897,"RA_OF_ASC_NODE":280.0941,"ARG_OF_PERICENTER":87.1335,"MEAN_ANOMALY":273.0036,"EPHEMERIS_TYPE":0,"CLASSIFICATION_TYPE":"U","NORAD_CAT_ID":43641,"ELEMENT_SET_NO":999,"REV_AT_EPOCH":40485,"BSTAR":-8.6318711e-5,"MEAN_MOTION_DOT":-7.39e-6,"MEAN_MOTION_DDOT":0},{"OBJECT_NAME":"H-2A R/B","OBJECT_ID":"2018-084L","EPOCH":"2026-04-02T03:51:45.849312","MEAN_MOTION":15.42371244,"ECCENTRICITY":0.00234509,"INCLINATION":98.8695,"RA_OF_ASC_NODE":314.5813,"ARG_OF_PERICENTER":302.7525,"MEAN_ANOMALY":57.1458,"EPHEMERIS_TYPE":0,"CLASSIFICATION_TYPE":"U","NORAD_CAT_ID":43682,"ELEMENT_SET_NO":999,"REV_AT_EPOCH":40939,"BSTAR":0.00066740529,"MEAN_MOTION_DOT":0.00029051,"MEAN_MOTION_DDOT":0},{"OBJECT_NAME":"SAOCOM 1B","OBJECT_ID":"2020-059A","EPOCH":"2026-04-02T06:51:00.473760","MEAN_MOTION":14.82148052,"ECCENTRICITY":0.00014775,"INCLINATION":97.8885,"RA_OF_ASC_NODE":279.222,"ARG_OF_PERICENTER":85.0236,"MEAN_ANOMALY":275.1146,"EPHEMERIS_TYPE":0,"CLASSIFICATION_TYPE":"U","NORAD_CAT_ID":46265,"ELEMENT_SET_NO":999,"REV_AT_EPOCH":30224,"BSTAR":0.00013897803,"MEAN_MOTION_DOT":1.054e-5,"MEAN_MOTION_DDOT":0},{"OBJECT_NAME":"CSS (TIANHE)","OBJECT_ID":"2021-035A","EPOCH":"2026-04-01T08:38:43.102176","MEAN_MOTION":15.61804306,"ECCENTRICITY":0.00037219,"INCLINATION":41.467,"RA_OF_ASC_NODE":70.0996,"ARG_OF_PERICENTER":85.9086,"MEAN_ANOMALY":274.2179,"EPHEMERIS_TYPE":0,"CLASSIFICATION_TYPE":"U","NORAD_CAT_ID":48274,"ELEMENT_SET_NO":999,"REV_AT_EPOCH":28115,"BSTAR":0.00027286117,"MEAN_MOTION_DOT":0.00024066,"MEAN_MOTION_DDOT":0},{"OBJECT_NAME":"COSMOS 2550","OBJECT_ID":"2021-056A","EPOCH":"2026-04-01T11:17:21.715008","MEAN_MOTION":15.33839536,"ECCENTRICITY":0.00083284,"INCLINATION":67.1445,"RA_OF_ASC_NODE":331.9738,"ARG_OF_PERICENTER":269.3207,"MEAN_ANOMALY":90.6993,"EPHEMERIS_TYPE":0,"CLASSIFICATION_TYPE":"U","NORAD_CAT_ID":48865,"ELEMENT_SET_NO":999,"REV_AT_EPOCH":26695,"BSTAR":0.00017705072,"MEAN_MOTION_DOT":5.639e-5,"MEAN_MOTION_DDOT":0},{"OBJECT_NAME":"CZ-2C R/B","OBJECT_ID":"2022-058K","EPOCH":"2026-04-01T13:56:23.959104","MEAN_MOTION":15.5599958,"ECCENTRICITY":0.00413307,"INCLINATION":50.1881,"RA_OF_ASC_NODE":200.3863,"ARG_OF_PERICENTER":299.0451,"MEAN_ANOMALY":60.6383,"EPHEMERIS_TYPE":0,"CLASSIFICATION_TYPE":"U","NORAD_CAT_ID":52794,"ELEMENT_SET_NO":999,"REV_AT_EPOCH":21369,"BSTAR":0.00059540125,"MEAN_MOTION_DOT":0.00043661,"MEAN_MOTION_DDOT":0},{"OBJECT_NAME":"CZ-2C R/B","OBJECT_ID":"2022-132E","EPOCH":"2026-04-02T06:04:07.490208","MEAN_MOTION":15.64092964,"ECCENTRICITY":0.00165246,"INCLINATION":97.295,"RA_OF_ASC_NODE":96.3241,"ARG_OF_PERICENTER":12.9034,"MEAN_ANOMALY":347.2644,"EPHEMERIS_TYPE":0,"CLASSIFICATION_TYPE":"U","NORAD_CAT_ID":54039,"ELEMENT_SET_NO":999,"REV_AT_EPOCH":19405,"BSTAR":0.0005826772,"MEAN_MOTION_DOT":0.00055662,"MEAN_MOTION_DDOT":0},{"OBJECT_NAME":"GSLV R/B","OBJECT_ID":"2022-138AN","EPOCH":"2026-04-02T06:03:58.934016","MEAN_MOTION":14.96925687,"ECCENTRICITY":0.00238766,"INCLINATION":87.3853,"RA_OF_ASC_NODE":158.4731,"ARG_OF_PERICENTER":69.1076,"MEAN_ANOMALY":291.2708,"EPHEMERIS_TYPE":0,"CLASSIFICATION_TYPE":"U","NORAD_CAT_ID":54149,"ELEMENT_SET_NO":999,"REV_AT_EPOCH":18745,"BSTAR":0.00037878336,"MEAN_MOTION_DOT":4.401e-5,"MEAN_MOTION_DDOT":0},{"OBJECT_NAME":"XRISM","OBJECT_ID":"2023-137A","EPOCH":"2026-04-02T03:32:42.637344","MEAN_MOTION":15.11778521,"ECCENTRICITY":0.00079039,"INCLINATION":31.0012,"RA_OF_ASC_NODE":131.9035,"ARG_OF_PERICENTER":274.9967,"MEAN_ANOMALY":84.977,"EPHEMERIS_TYPE":0,"CLASSIFICATION_TYPE":"U","NORAD_CAT_ID":57800,"ELEMENT_SET_NO":999,"REV_AT_EPOCH":14134,"BSTAR":0.00035921504,"MEAN_MOTION_DOT":6.385e-5,"MEAN_MOTION_DDOT":0},{"OBJECT_NAME":"ACS3","OBJECT_ID":"2024-077B","EPOCH":"2026-04-02T07:43:34.524768","MEAN_MOTION":13.90761909,"ECCENTRICITY":0.00731274,"INCLINATION":97.1958,"RA_OF_ASC_NODE":28.1225,"ARG_OF_PERICENTER":23.0795,"MEAN_ANOMALY":337.3627,"EPHEMERIS_TYPE":0,"CLASSIFICATION_TYPE":"U","NORAD_CAT_ID":59588,"ELEMENT_SET_NO":999,"REV_AT_EPOCH":9748,"BSTAR":0.024712747,"MEAN_MOTION_DOT":0.00031643,"MEAN_MOTION_DDOT":0},{"OBJECT_NAME":"HTV-X1","OBJECT_ID":"2025-241A","EPOCH":"2026-04-02T07:43:54.761376","MEAN_MOTION":15.32498869,"ECCENTRICITY":0.00072321,"INCLINATION":51.6372,"RA_OF_ASC_NODE":319.1601,"ARG_OF_PERICENTER":263.7967,"MEAN_ANOMALY":96.219,"EPHEMERIS_TYPE":0,"CLASSIFICATION_TYPE":"U","NORAD_CAT_ID":66174,"ELEMENT_SET_NO":999,"REV_AT_EPOCH":2456,"BSTAR":7.4806522e-5,"MEAN_MOTION_DOT":2.012e-5,"MEAN_MOTION_DDOT":0},{"OBJECT_NAME":"SZ-21 MODULE","OBJECT_ID":"2025-246C","EPOCH":"2026-04-02T05:39:02.937888","MEAN_MOTION":15.70445326,"ECCENTRICITY":0.00026896,"INCLINATION":41.4744,"RA_OF_ASC_NODE":58.2163,"ARG_OF_PERICENTER":222.0292,"MEAN_ANOMALY":138.0345,"EPHEMERIS_TYPE":0,"CLASSIFICATION_TYPE":"U","NORAD_CAT_ID":66515,"ELEMENT_SET_NO":999,"REV_AT_EPOCH":2177,"BSTAR":0.00041273011,"MEAN_MOTION_DOT":0.00052107,"MEAN_MOTION_DDOT":0}]
